<?xml version="1.0" encoding="UTF-8"?><?xml-stylesheet type="text/xsl" href="//srjconsultingservices.com/main-sitemap.xsl"?>
<kml xmlns="http://www.opengis.net/kml/2.2" xmlns:atom="http://www.w3.org/2005/Atom">
	<Document>
		<name>Locations for SRJ Consulting &amp; Services LLC</name>
		<open>1</open>
		<Folder>
			<atom:link href="https://srjconsultingservices.com" />
			<Placemark>
				<name><![CDATA[SRJ Consulting & Services LLC]]></name>
				<description><![CDATA[SRJ Consulting & Services LLC - Operating Discipline for AI]]></description>
				<address><![CDATA[13054 Cinderella Lane, TX, 75035, United States]]></address>
				<phoneNumber><![CDATA[14154137772]]></phoneNumber>
				<atom:link href="https://srjconsultingservices.com"/>
				<LookAt>
					<latitude>33.18977836686447</latitude>
					<longitude> -96.76462091997637</longitude>
					<altitude>0</altitude>
					<range></range>
					<tilt>0</tilt>
				</LookAt>
				<Point>
					<coordinates> -96.76462091997637,33.18977836686447</coordinates>
				</Point>
			</Placemark>
		</Folder>
	</Document>
</kml>

<!-- XML Sitemap generated by Rank Math SEO Plugin (c) Rank Math - rankmath.com -->
